2010/05/17 02:00
SBGL 170200Z 35004KT 5000 BR FEW015 22/20 Q1016
