2010/05/17 00:00
SBGL 170000Z 00000KT CAVOK 23/19 Q1015
