2010/05/17 02:00
SBGR 170200Z 00000KT CAVOK 15/13 Q1020
