2010/05/17 01:15
SBGL 170115Z 36006KT 5000 BR FEW015 23/20 Q1015
