2010/05/17 01:00
SBGR 170100Z 00000KT CAVOK 16/13 Q1019
