2010/05/17 00:00
SBGR 170000Z 00000KT CAVOK 15/12 Q1019
